LEMUR-2-ROUNDTRIPPER    
1 62711U 25009DG  26199.22940741  .00004028  00000+0  29392-3 0  9990
2 62711  97.7244 281.8721 0004491  58.5027 301.6637 15.04258414 82297
LEMUR-2-MYNAMEISJEFF    
1 62712U 25009DH  26199.22791330  .00004077  00000+0  29751-3 0  9992
2 62712  97.7294 282.2704 0004324  90.9611 269.2110 15.04249561 82291
LEMUR-2-LEIA-PHILIP     
1 63246U 25052AN  26199.21055947  .00000000  00000+0  49477-5 0  9990
2 63246  97.6797  90.6351 0005058 113.0679 247.1077 14.97392425 73315
LEMUR-2-LIA-MARTIN      
1 63248U 25052AQ  26199.27061340  .00001371  00000+0  12086-3 0  9998
2 63248  97.6856  91.2182 0005095  82.8339 277.3462 14.98040971 73331
LEMUR-2-DELOITTE-1      
1 63259U 25052BB  26199.58560716  .00002357  00000+0  20563-3 0  9999
2 63259  97.6885  91.8581 0002543  60.2235 299.9240 14.97798358 73392
LEMUR-2-EMERSONROSE     
1 63261U 25052BD  26199.52963754  .00002218  00000+0  18642-3 0  9996
2 63261  97.6882  92.4238 0002537  54.1024 306.0435 14.99307574 73438
LEMUR-2-MARACHE-FRAN    
1 63262U 25052BE  26199.28330413  .00001617  00000+0  13370-3 0  9995
2 63262  97.6822  92.5509 0005550 239.9958 120.0715 15.00326233 73422
LEMUR-2-THEFALCONER     
1 63264U 25052BG  26199.28248552  .00001064  00000+0  96047-4 0  9998
2 63264  97.6820  91.1469 0000497 242.7074 117.4097 14.97570089 73347
LEMUR-2-UNTITLED-SC     
1 63351U 25061A   26199.35907566  .00001717  00000+0  98815-4 0  9990
2 63351  97.5660 174.5007 0019515 152.5117 207.7151 15.13657387 72301
LEMUR-2-ESPERANZA       
1 63352U 25061B   26199.40029077  .00001710  00000+0  98140-4 0  9993
2 63352  97.5666 174.6427 0019123 151.6804 208.5472 15.13763840 72311
LEMUR-2-KREMPEL-BRO2    
1 63353U 25061C   26198.88968886  .00001815  00000+0  10269-3 0  9996
2 63353  97.5710 174.7078 0020205 146.3722 213.8796 15.14188924 72254
LEMUR-2-THERMORAPTOR    
1 63354U 25061D   26199.33266070  .00001813  00000+0  10237-3 0  9997
2 63354  97.5718 175.2302 0019980 143.8206 216.4382 15.14273512 72322
LEMUR-2-NEUROSPICY      
1 63355U 25061E   26199.36800364  .00001826  00000+0  10278-3 0  9990
2 63355  97.5645 174.8673 0017791 146.5100 213.7261 15.14392542 72331
LEMUR-2-TILLINFINITY    
1 63356U 25061F   26199.39125146  .00001730  00000+0  95934-4 0  9999
2 63356  97.5630 175.2029 0019311 135.5143 224.7644 15.14977651 72361
LEMUR-2-KREMPEL-BRO1    
1 63357U 25061G   26199.36871000  .00001835  00000+0  10206-3 0  9998
2 63357  97.5632 175.0877 0019942 136.9515 223.3281 15.14783724 72358
LEMUR-2-LANGER2SPACE    
1 63358U 25061H   26199.33540634  .00001849  00000+0  10383-3 0  9993
2 63358  97.5636 174.8562 0017667 144.9898 215.2499 15.14477234 72331
LEMUR-2-BALTO           
1 63395U 25052BH  26199.26755964  .00002228  00000+0  18215-3 0  9994
2 63395  97.6922  92.5277 0005017 314.5167  45.5646 15.00379070 73423
LEMUR-2-KRISH           
1 64561U 25135AK  26199.30309299  .00001828  00000+0  16626-3 0  9992
2 64561  97.7767 313.9735 0001127 101.4854 258.6494 14.96459848 58573
LEMUR-2-HUBBLE-4        
1 64565U 25135AP  26199.55766341  .00000411  00000+0  44257-4 0  9997
2 64565  97.7722 313.1015 0002936 154.1695 205.9672 14.93690668 58553
LEMUR-2-SEJONG-2        
1 64586U 25135BL  26199.59054707  .00002268  00000+0  20253-3 0  9991
2 64586  97.7709 314.4046 0004180 202.4540 157.6500 14.96927189 58645
LEMUR-2-HUBBLE-5        
1 64840U 25135BT  26199.56531312  .00000316  00000+0  34781-4 0  9997
2 64840  97.7742 313.7818 0004565 221.5495 138.5379 14.94217640 58590
LEMUR-2-KARENDARRELL    
1 64841U 25135BU  26199.59741241  .00003749  00000+0  30173-3 0  9998
2 64841  97.7722 315.7668 0012755  94.4353 265.8329 15.00526544 58722
LEMUR-2-LUCILLE-ROSE    
1 65403U 25135BV  26199.57089868  .00003070  00000+0  24788-3 0  9993
2 65403  97.7705 315.7752 0015272 178.9427 181.1832 15.00510880 53347
LEMUR-2-AFFIE-WAUWIE    
1 66295U 25248C   26199.57223626  .00012349  00000+0  44883-3 0  9997
2 66295  45.3903 304.7895 0009039 269.7591  90.2263 15.28344711 39392
OTTER SDM               
1 66678U 25276N   26199.19129110  .00002887  00000+0  13688-3 0  9999
2 66678  97.4198 272.1578 0004470 240.2344 119.8447 15.20076153 35124
LEMUR-2-STAS-GORBUK     
1 66686U 25276W   26199.14766451  .00002798  00000+0  13433-3 0  9997
2 66686  97.4233 272.1663 0003771 233.5789 126.5098 15.19675181 35119
LEMUR-2-TEODOR          
1 66768U 25276DG  26199.16318509  .00002911  00000+0  13300-3 0  9997
2 66768  97.4137 272.4569 0002188  85.3117 274.8369 15.21355081 35159
LEMUR-2-LAILA           
1 66776U 25276DQ  26199.19830879  .00002900  00000+0  13164-3 0  9994
2 66776  97.4160 272.6321 0002869  89.9717 270.1847 15.21581522 35166
LEMUR-2-CELIJO-SB-PK    
1 66781U 25276DW  26199.18617150  .00002908  00000+0  23647-3 0  9999
2 66781  97.5186 268.9404 0006825  57.0953 303.0927 15.00302816 27277
LEMUR-2-FINNIAN         
1 66782U 25276DX  26198.42230088  .00001385  00000+0  11408-3 0  9997
2 66782  97.5344 268.4746 0007425 350.8943   9.2145 15.00631674 24538
