OBJECT_NAME,OBJECT_ID,EPOCH,MEAN_MOTION,ECCENTRICITY,INCLINATION,RA_OF_ASC_NODE,ARG_OF_PERICENTER,MEAN_ANOMALY,EPHEMERIS_TYPE,CLASSIFICATION_TYPE,NORAD_CAT_ID,ELEMENT_SET_NO,REV_AT_EPOCH,BSTAR,MEAN_MOTION_DOT,MEAN_MOTION_DDOT
LEMUR-2-ROUNDTRIPPER,2025-009DG,2026-07-18T05:30:20.800224,15.04258414,.00044915,97.7244,281.8721,58.5027,301.6637,0,U,62711,999,8229,.29391926E-3,.4028E-4,0
LEMUR-2-MYNAMEISJEFF,2025-009DH,2026-07-18T05:28:11.709120,15.04249561,.00043241,97.7294,282.2704,90.9611,269.2110,0,U,62712,999,8229,.29751387E-3,.4077E-4,0
LEMUR-2-LEIA-PHILIP,2025-052AN,2026-07-18T05:03:12.338208,14.97392425,.00050582,97.6797,90.6351,113.0679,247.1077,0,U,63246,999,7331,.4947671E-5,0,0
LEMUR-2-LIA-MARTIN,2025-052AQ,2026-07-18T06:29:40.997760,14.98040971,.00050959,97.6856,91.2182,82.8339,277.3462,0,U,63248,999,7333,.12086411E-3,.1371E-4,0
LEMUR-2-DELOITTE-1,2025-052BB,2026-07-18T14:03:16.458624,14.97798358,.00025434,97.6885,91.8581,60.2235,299.9240,0,U,63259,999,7339,.20562611E-3,.2357E-4,0
LEMUR-2-EMERSONROSE,2025-052BD,2026-07-18T12:42:40.683456,14.99307574,.00025378,97.6882,92.4238,54.1024,306.0435,0,U,63261,999,7343,.1864203E-3,.2218E-4,0
LEMUR-2-MARACHE-FRAN,2025-052BE,2026-07-18T06:47:57.476832,15.00326233,.00055509,97.6822,92.5509,239.9958,120.0715,0,U,63262,999,7342,.13369803E-3,.1617E-4,0
LEMUR-2-THEFALCONER,2025-052BG,2026-07-18T06:46:46.748928,14.97570089,.00004979,97.6820,91.1469,242.7074,117.4097,0,U,63264,999,7334,.96047206E-4,.1064E-4,0
LEMUR-2-UNTITLED-SC,2025-061A,2026-07-18T08:37:04.137024,15.13657387,.0019515,97.5660,174.5007,152.5117,207.7151,0,U,63351,999,7230,.98815416E-4,.1717E-4,0
LEMUR-2-ESPERANZA,2025-061B,2026-07-18T09:36:25.122528,15.13763840,.00191235,97.5666,174.6427,151.6804,208.5472,0,U,63352,999,7231,.98139892E-4,.171E-4,0
LEMUR-2-KREMPEL-BRO2,2025-061C,2026-07-17T21:21:09.117504,15.14188924,.00202054,97.5710,174.7078,146.3722,213.8796,0,U,63353,999,7225,.102687E-3,.1815E-4,0
LEMUR-2-THERMORAPTOR,2025-061D,2026-07-18T07:59:01.884480,15.14273512,.00199804,97.5718,175.2302,143.8206,216.4382,0,U,63354,999,7232,.10236556E-3,.1813E-4,0
LEMUR-2-NEUROSPICY,2025-061E,2026-07-18T08:49:55.514496,15.14392542,.00177917,97.5645,174.8673,146.5100,213.7261,0,U,63355,999,7233,.10277508E-3,.1826E-4,0
LEMUR-2-TILLINFINITY,2025-061F,2026-07-18T09:23:24.126144,15.14977651,.00193113,97.5630,175.2029,135.5143,224.7644,0,U,63356,999,7236,.95934226E-4,.173E-4,0
LEMUR-2-KREMPEL-BRO1,2025-061G,2026-07-18T08:50:56.544000,15.14783724,.00199423,97.5632,175.0877,136.9515,223.3281,0,U,63357,999,7235,.10206421E-3,.1835E-4,0
LEMUR-2-LANGER2SPACE,2025-061H,2026-07-18T08:02:59.107776,15.14477234,.00176673,97.5636,174.8562,144.9898,215.2499,0,U,63358,999,7233,.10383277E-3,.1849E-4,0
LEMUR-2-BALTO,2025-052BH,2026-07-18T06:25:17.152896,15.00379070,.00050173,97.6922,92.5277,314.5167,45.5646,0,U,63395,999,7342,.18215448E-3,.2228E-4,0
LEMUR-2-KRISH,2025-135AK,2026-07-18T07:16:27.234336,14.96459848,.00011277,97.7767,313.9735,101.4854,258.6494,0,U,64561,999,5857,.16625984E-3,.1828E-4,0
LEMUR-2-HUBBLE-4,2025-135AP,2026-07-18T13:23:02.118624,14.93690668,.00029368,97.7722,313.1015,154.1695,205.9672,0,U,64565,999,5855,.44256551E-4,.411E-5,0
LEMUR-2-SEJONG-2,2025-135BL,2026-07-18T14:10:23.266848,14.96927189,.000418,97.7709,314.4046,202.4540,157.6500,0,U,64586,999,5864,.2025251E-3,.2268E-4,0
LEMUR-2-HUBBLE-5,2025-135BT,2026-07-18T13:34:03.053568,14.94217640,.0004565,97.7742,313.7818,221.5495,138.5379,0,U,64840,999,5859,.34780619E-4,.316E-5,0
LEMUR-2-KARENDARRELL,2025-135BU,2026-07-18T14:20:16.432224,15.00526544,.00127555,97.7722,315.7668,94.4353,265.8329,0,U,64841,999,5872,.301731E-3,.3749E-4,0
LEMUR-2-LUCILLE-ROSE,2025-135BV,2026-07-18T13:42:05.645952,15.00510880,.00152729,97.7705,315.7752,178.9427,181.1832,0,U,65403,999,5334,.24787511E-3,.307E-4,0
LEMUR-2-AFFIE-WAUWIE,2025-248C,2026-07-18T13:44:01.212864,15.28344711,.00090395,45.3903,304.7895,269.7591,90.2263,0,U,66295,999,3939,.4488256E-3,.12349E-3,0
OTTER SDM,2025-276N,2026-07-18T04:35:27.551040,15.20076153,.00044702,97.4198,272.1578,240.2344,119.8447,0,U,66678,999,3512,.13688316E-3,.2887E-4,0
LEMUR-2-STAS-GORBUK,2025-276W,2026-07-18T03:32:38.213664,15.19675181,.00037715,97.4233,272.1663,233.5789,126.5098,0,U,66686,999,3511,.13433395E-3,.2798E-4,0
LEMUR-2-TEODOR,2025-276DG,2026-07-18T03:54:59.191776,15.21355081,.00021882,97.4137,272.4569,85.3117,274.8369,0,U,66768,999,3515,.13300346E-3,.2911E-4,0
LEMUR-2-LAILA,2025-276DQ,2026-07-18T04:45:33.879456,15.21581522,.00028697,97.4160,272.6321,89.9717,270.1847,0,U,66776,999,3516,.13164241E-3,.29E-4,0
LEMUR-2-CELIJO-SB-PK,2025-276DW,2026-07-18T04:28:05.217600,15.00302816,.00068255,97.5186,268.9404,57.0953,303.0927,0,U,66781,999,2727,.23647274E-3,.2908E-4,0
LEMUR-2-FINNIAN,2025-276DX,2026-07-17T10:08:06.796032,15.00631674,.0007425,97.5344,268.4746,350.8943,9.2145,0,U,66782,999,2453,.11408E-3,.1385E-4,0
